{
  "links" : {
    "next" : "https://api.nasa.gov/neo/rest/v1/feed?start_date=1997-05-16&end_date=1997-05-16&detailed=true&api_key=t0TVs3DtDT2H8Oy2Zy8m2eVrNsAVKAexjcZXUckd",
    "prev" : "https://api.nasa.gov/neo/rest/v1/feed?start_date=1997-05-14&end_date=1997-05-14&detailed=true&api_key=t0TVs3DtDT2H8Oy2Zy8m2eVrNsAVKAexjcZXUckd",
    "self" : "https://api.nasa.gov/neo/rest/v1/feed?start_date=1997-05-15&end_date=1997-05-15&detailed=true&api_key=t0TVs3DtDT2H8Oy2Zy8m2eVrNsAVKAexjcZXUckd"
  },
  "element_count" : 6,
  "near_earth_objects" : {
    "1997-05-15" : [ {
      "links" : {
        "self" : "https://api.nasa.gov/neo/rest/v1/neo/3639421?api_key=t0TVs3DtDT2H8Oy2Zy8m2eVrNsAVKAexjcZXUckd"
      },
      "neo_reference_id" : "3639421",
      "name" : "(2013 KH6)",
      "nasa_jpl_url" : "http://ssd.jpl.nasa.gov/sbdb.cgi?sstr=3639421",
      "absolute_magnitude_h" : 23.2,
      "estimated_diameter" : {
        "kilometers" : {
          "estimated_diameter_min" : 0.0608912622,
          "estimated_diameter_max" : 0.1361570015
        },
        "meters" : {
          "estimated_diameter_min" : 60.8912622106,
          "estimated_diameter_max" : 136.1570015386
        },
        "miles" : {
          "estimated_diameter_min" : 0.0378360645,
          "estimated_diameter_max" : 0.0846040122
        },
        "feet" : {
          "estimated_diameter_min" : 199.7744887109,
          "estimated_diameter_max" : 446.7093369279
        }
      },
      "is_potentially_hazardous_asteroid" : false,
      "close_approach_data" : [ {
        "close_approach_date" : "1997-05-15",
        "epoch_date_close_approach" : 863679600000,
        "relative_velocity" : {
          "kilometers_per_second" : "11.7899326757",
          "kilometers_per_hour" : "42443.7576324977",
          "miles_per_hour" : "26372.9004022595"
        },
        "miss_distance" : {
          "astronomical" : "0.2390267237",
          "lunar" : "92.9813995361",
          "kilometers" : "35757888",
          "miles" : "22218922"
        },
        "orbiting_body" : "Earth"
      } ],
      "orbital_data" : {
        "orbit_id" : "14",
        "orbit_determination_date" : "2017-04-06 08:45:44",
        "orbit_uncertainty" : "3",
        "minimum_orbit_intersection" : ".0502394",
        "jupiter_tisserand_invariant" : "6.441",
        "epoch_osculation" : "2458000.5",
        "eccentricity" : ".1606456688159271",
        "semi_major_axis" : ".9226192577046369",
        "inclination" : "15.55324623128285",
        "ascending_node_longitude" : "246.3103944135854",
        "orbital_period" : "323.6921743042597",
        "perihelion_distance" : ".7744044699882213",
        "perihelion_argument" : "195.4246546289114",
        "aphelion_distance" : "1.070834045421053",
        "perihelion_time" : "2457914.902741493615",
        "mean_anomaly" : "95.19851114266817",
        "mean_motion" : "1.112167758685486",
        "equinox" : "J2000"
      }
    }, {
      "links" : {
        "self" : "https://api.nasa.gov/neo/rest/v1/neo/3733933?api_key=t0TVs3DtDT2H8Oy2Zy8m2eVrNsAVKAexjcZXUckd"
      },
      "neo_reference_id" : "3733933",
      "name" : "(2015 VH65)",
      "nasa_jpl_url" : "http://ssd.jpl.nasa.gov/sbdb.cgi?sstr=3733933",
      "absolute_magnitude_h" : 27.7,
      "estimated_diameter" : {
        "kilometers" : {
          "estimated_diameter_min" : 0.0076657557,
          "estimated_diameter_max" : 0.0171411509
        },
        "meters" : {
          "estimated_diameter_min" : 7.6657557353,
          "estimated_diameter_max" : 17.1411509231
        },
        "miles" : {
          "estimated_diameter_min" : 0.0047632783,
          "estimated_diameter_max" : 0.0106510141
        },
        "feet" : {
          "estimated_diameter_min" : 25.1501180466,
          "estimated_diameter_max" : 56.2373735944
        }
      },
      "is_potentially_hazardous_asteroid" : false,
      "close_approach_data" : [ {
        "close_approach_date" : "1997-05-15",
        "epoch_date_close_approach" : 863679600000,
        "relative_velocity" : {
          "kilometers_per_second" : "12.6674745388",
          "kilometers_per_hour" : "45602.9083397516",
          "miles_per_hour" : "28335.8737958862"
        },
        "miss_distance" : {
          "astronomical" : "0.3294912855",
          "lunar" : "128.1721038818",
          "kilometers" : "49291196",
          "miles" : "30628128"
        },
        "orbiting_body" : "Earth"
      } ],
      "orbital_data" : {
        "orbit_id" : "6",
        "orbit_determination_date" : "2017-04-06 08:30:49",
        "orbit_uncertainty" : "6",
        "minimum_orbit_intersection" : ".0145851",
        "jupiter_tisserand_invariant" : "6.877",
        "epoch_osculation" : "2458000.5",
        "eccentricity" : ".2283063963369787",
        "semi_major_axis" : ".8515275457794295",
        "inclination" : "13.37646294124596",
        "ascending_node_longitude" : "227.1365037671775",
        "orbital_period" : "287.0096366874427",
        "perihelion_distance" : ".6571183604208563",
        "perihelion_argument" : "330.2186154684936",
        "aphelion_distance" : "1.045936731138003",
        "perihelion_time" : "2458018.330160761042",
        "mean_anomaly" : "337.6353924974111",
        "mean_motion" : "1.254313284233187",
        "equinox" : "J2000"
      }
    }, {
      "links" : {
        "self" : "https://api.nasa.gov/neo/rest/v1/neo/3675307?api_key=t0TVs3DtDT2H8Oy2Zy8m2eVrNsAVKAexjcZXUckd"
      },
      "neo_reference_id" : "3675307",
      "name" : "(2014 NZ64)",
      "nasa_jpl_url" : "http://ssd.jpl.nasa.gov/sbdb.cgi?sstr=3675307",
      "absolute_magnitude_h" : 22.8,
      "estimated_diameter" : {
        "kilometers" : {
          "estimated_diameter_min" : 0.0732073989,
          "estimated_diameter_max" : 0.1636967205
        },
        "meters" : {
          "estimated_diameter_min" : 73.2073989347,
          "estimated_diameter_max" : 163.696720474
        },
        "miles" : {
          "estimated_diameter_min" : 0.0454889547,
          "estimated_diameter_max" : 0.1017163949
        },
        "feet" : {
          "estimated_diameter_min" : 240.181762721,
          "estimated_diameter_max" : 537.0627483999
        }
      },
      "is_potentially_hazardous_asteroid" : false,
      "close_approach_data" : [ {
        "close_approach_date" : "1997-05-15",
        "epoch_date_close_approach" : 863679600000,
        "relative_velocity" : {
          "kilometers_per_second" : "6.9403587642",
          "kilometers_per_hour" : "24985.2915511416",
          "miles_per_hour" : "15524.8885196524"
        },
        "miss_distance" : {
          "astronomical" : "0.2994105987",
          "lunar" : "116.4707260132",
          "kilometers" : "44791192",
          "miles" : "27831956"
        },
        "orbiting_body" : "Earth"
      } ],
      "orbital_data" : {
        "orbit_id" : "10",
        "orbit_determination_date" : "2017-05-29 06:17:29",
        "orbit_uncertainty" : "3",
        "minimum_orbit_intersection" : ".00922884",
        "jupiter_tisserand_invariant" : "5.875",
        "epoch_osculation" : "2458000.5",
        "eccentricity" : ".2734300848054244",
        "semi_major_axis" : "1.03678332364244",
        "inclination" : "4.494555443251376",
        "ascending_node_longitude" : "162.4487925503341",
        "orbital_period" : "385.5941456181894",
        "perihelion_distance" : ".7532955715340381",
        "perihelion_argument" : "273.5875697145474",
        "aphelion_distance" : "1.320271075750842",
        "perihelion_time" : "2458135.882493815108",
        "mean_anomaly" : "233.6036365508043",
        "mean_motion" : ".9336241332783813",
        "equinox" : "J2000"
      }
    } ]
  }
}